[
  {
    "OBJECT_NAME": "CANOPY-GEO-FIXTURE-1",
    "OBJECT_ID": "2026-001A",
    "NORAD_CAT_ID": 99001,
    "EPOCH": "2026-05-02T00:00:00.000000",
    "MEAN_MOTION": 1.0027,
    "ECCENTRICITY": 0.00012,
    "INCLINATION": 0.04,
    "RA_OF_ASC_NODE": 91.2,
    "ARG_OF_PERICENTER": 45.0,
    "MEAN_ANOMALY": 315.0,
    "EPHEMERIS_TYPE": 0,
    "CLASSIFICATION_TYPE": "U",
    "ELEMENT_SET_NO": 1,
    "REV_AT_EPOCH": 12,
    "BSTAR": 0.0,
    "MEAN_MOTION_DOT": 0.0,
    "MEAN_MOTION_DDOT": 0.0
  }
]
